{
  "type": "FeatureCollection",
  "features": [
    {
      "type": "Feature",
      "properties": {
        "norad_id": 66646,
        "name": "CZ-2F R/B",
        "group": "stations",
        "lat": NaN,
        "lon": NaN,
        "alt_km": NaN,
        "timestamp": "2025-12-01T03:12:43.528281+00:00",
        "meta": {
          "OBJECT_NAME": "CZ-2F R/B",
          "OBJECT_ID": "2025-272B",
          "EPOCH": "2025-11-26T11:17:54.506400",
          "MEAN_MOTION": 16.01945612,
          "ECCENTRICITY": 0.01210796,
          "INCLINATION": 41.4431,
          "RA_OF_ASC_NODE": 114.9009,
          "ARG_OF_PERICENTER": 133.7676,
          "MEAN_ANOMALY": 227.3272,
          "EPHEMERIS_TYPE": 0,
          "CLASSIFICATION_TYPE": "U",
          "NORAD_CAT_ID": 66646,
          "ELEMENT_SET_NO": 999,
          "REV_AT_EPOCH": 21,
          "BSTAR": 0.00029319366,
          "MEAN_MOTION_DOT": 0.00449059,
          "MEAN_MOTION_DDOT": 7.567612e-06
        }
      },
      "geometry": {
        "type": "Point",
        "coordinates": [
          NaN,
          NaN
        ]
      }
    },
    {
      "type": "Feature",
      "properties": {
        "norad_id": 49271,
        "name": "FREGAT DEB",
        "group": "stations",
        "lat": NaN,
        "lon": NaN,
        "alt_km": NaN,
        "timestamp": "2025-12-01T03:12:43.528300+00:00",
        "meta": {
          "OBJECT_NAME": "FREGAT DEB",
          "OBJECT_ID": "2011-037PF",
          "EPOCH": "2025-11-30T02:27:10.897344",
          "MEAN_MOTION": 12.34314267,
          "ECCENTRICITY": 0.08699853,
          "INCLINATION": 51.6202,
          "RA_OF_ASC_NODE": 236.7991,
          "ARG_OF_PERICENTER": 196.4494,
          "MEAN_ANOMALY": 160.6386,
          "EPHEMERIS_TYPE": 0,
          "CLASSIFICATION_TYPE": "U",
          "NORAD_CAT_ID": 49271,
          "ELEMENT_SET_NO": 999,
          "REV_AT_EPOCH": 20037,
          "BSTAR": 0.014225513,
          "MEAN_MOTION_DOT": 6.404e-05,
          "MEAN_MOTION_DDOT": 0
        }
      },
      "geometry": {
        "type": "Point",
        "coordinates": [
          NaN,
          NaN
        ]
      }
    },
    {
      "type": "Feature",
      "properties": {
        "norad_id": 66052,
        "name": "HRC MONOBLOCK CAMERA",
        "group": "stations",
        "lat": NaN,
        "lon": NaN,
        "alt_km": NaN,
        "timestamp": "2025-12-01T03:12:43.528311+00:00",
        "meta": {
          "OBJECT_NAME": "HRC MONOBLOCK CAMERA",
          "OBJECT_ID": "1998-067XR",
          "EPOCH": "2025-11-30T08:45:13.490208",
          "MEAN_MOTION": 15.5298676,
          "ECCENTRICITY": 0.00045696,
          "INCLINATION": 51.6305,
          "RA_OF_ASC_NODE": 203.1547,
          "ARG_OF_PERICENTER": 134.7899,
          "MEAN_ANOMALY": 225.3463,
          "EPHEMERIS_TYPE": 0,
          "CLASSIFICATION_TYPE": "U",
          "NORAD_CAT_ID": 66052,
          "ELEMENT_SET_NO": 999,
          "REV_AT_EPOCH": 691,
          "BSTAR": 0.00058422747,
          "MEAN_MOTION_DOT": 0.00036812,
          "MEAN_MOTION_DDOT": 0
        }
      },
      "geometry": {
        "type": "Point",
        "coordinates": [
          NaN,
          NaN
        ]
      }
    },
    {
      "type": "Feature",
      "properties": {
        "norad_id": 66515,
        "name": "SZ-21 MODULE",
        "group": "stations",
        "lat": NaN,
        "lon": NaN,
        "alt_km": NaN,
        "timestamp": "2025-12-01T03:12:43.528317+00:00",
        "meta": {
          "OBJECT_NAME": "SZ-21 MODULE",
          "OBJECT_ID": "2025-246C",
          "EPOCH": "2025-11-30T18:36:14.596416",
          "MEAN_MOTION": 15.61627193,
          "ECCENTRICITY": 0.0005518,
          "INCLINATION": 41.4762,
          "RA_OF_ASC_NODE": 88.9853,
          "ARG_OF_PERICENTER": 188.5399,
          "MEAN_ANOMALY": 171.5347,
          "EPHEMERIS_TYPE": 0,
          "CLASSIFICATION_TYPE": "U",
          "NORAD_CAT_ID": 66515,
          "ELEMENT_SET_NO": 999,
          "REV_AT_EPOCH": 257,
          "BSTAR": 0.00032879,
          "MEAN_MOTION_DOT": 0.00028896,
          "MEAN_MOTION_DDOT": 0
        }
      },
      "geometry": {
        "type": "Point",
        "coordinates": [
          NaN,
          NaN
        ]
      }
    }
  ]
}